{
  "norad_id": 67058,
  "name": "STARLINK-35767",
  "history": [
    {
      "epoch": "2026-03-28T21:32:46.344768",
      "apogee_km": 484.21168765547736,
      "perigee_km": 481.79793796573085,
      "latitude_deg": 29.66596709863892,
      "longitude_deg": -108.01517247990705,
      "semi_major_axis_km": 6861.141812810604,
      "eccentricity": 0.0001759,
      "inclination_deg": 43.0019,
      "raan_deg": 289.8682,
      "arg_perigee_deg": 277.8412,
      "mean_anomaly_deg": 82.224,
      "mean_motion_rev_day": 15.27594789
    }
  ]
}