{"fetched_at":"2026-03-29T16:36:15Z","count":15609,"tles":[{"name":"STARLINK-35767","line1":"1 67058U 25294AE  26087.89775862  .00032400  00000+0  11812-2 0  9996","line2":"2 67058  43.0019 289.8682 0001759 277.8412  82.2240 15.27594789 17734","category":"Starlink"}]}